start=new Date('2022-01-28T00:00:00.000Z').valueOf();
sats=[{"NORAD_CAT_ID":"48479","MEAN_ANOMALY":"287.5205","OBJECT_TYPE":"PAYLOAD","TIME_SYSTEM":"UTC","OBJECT_ID":"2021-040BD","REF_FRAME":"TEME","LAUNCH_DATE":"2021-05-09","CLASSIFICATION_TYPE":"U","ECCENTRICITY":"0.00014970","TLE_LINE2":"2 48479  53.0559  94.8827 0001497  72.5947 287.5205 15.06407081 41369","CENTER_NAME":"EARTH","EPHEMERIS_TYPE":"0","FILE":"3285256","TLE_LINE1":"1 48479U 21040BD  22027.57548051  .00004426  00000-0  31579-3 0  9991","PERIOD":"95.592","SITE":"AFETR","ARG_OF_PERICENTER":"72.5947","COUNTRY_CODE":"US","ELEMENT_SET_NO":"999","MEAN_ELEMENT_THEORY":"SGP4","PERIAPSIS":"546.155","MEAN_MOTION":"15.06407081","MEAN_MOTION_DOT":"0.00004426","RA_OF_ASC_NODE":"94.8827","MEAN_MOTION_DDOT":"0.0000000000000","DECAY_DATE":null,"EPOCH":"2022-01-27T13:48:41.516064","APOAPSIS":"548.229","OBJECT_NAME":"STARLINK-2755","SEMIMAJOR_AXIS":"6925.327","GP_ID":"194752858","RCS_SIZE":"LARGE","REV_AT_EPOCH":"4136","INCLINATION":"53.0559","BSTAR":"0.00031579000000"},{"MEAN_MOTION_DOT":"0.00001413","MEAN_MOTION":"15.06400344","PERIAPSIS":"546.332","MEAN_ELEMENT_THEORY":"SGP4","EPOCH":"2022-01-27T14:08:35.703168","DECAY_DATE":null,"MEAN_MOTION_DDOT":"0.0000000000000","RA_OF_ASC_NODE":"104.8023","GP_ID":"194752860","SEMIMAJOR_AXIS":"6925.348","APOAPSIS":"548.093","OBJECT_NAME":"STARLINK-2690","BSTAR":"0.00011374000000","INCLINATION":"53.0554","REV_AT_EPOCH":"4122","RCS_SIZE":"LARGE","REF_FRAME":"TEME","OBJECT_ID":"2021-040BE","TIME_SYSTEM":"UTC","OBJECT_TYPE":"PAYLOAD","MEAN_ANOMALY":"288.3494","NORAD_CAT_ID":"48480","CENTER_NAME":"EARTH","TLE_LINE2":"2 48480  53.0554 104.8023 0001271  71.7633 288.3494 15.06400344 41228","ECCENTRICITY":"0.00012710","LAUNCH_DATE":"2021-05-09","CLASSIFICATION_TYPE":"U","EPHEMERIS_TYPE":"0","FILE":"3285256","ELEMENT_SET_NO":"999","ARG_OF_PERICENTER":"71.7633","COUNTRY_CODE":"US","SITE":"AFETR","TLE_LINE1":"1 48480U 21040BE  22027.58930212  .00001413  00000-0  11374-3 0  9992","PERIOD":"95.592"},{"EPHEMERIS_TYPE":"0","FILE":"3284696","TLE_LINE1":"1 48481U 21040BF  22026.60789442  .00001379  00000-0  11141-3 0  9995","PERIOD":"95.592","ELEMENT_SET_NO":"999","SITE":"AFETR","COUNTRY_CODE":"US","ARG_OF_PERICENTER":"66.5344","OBJECT_TYPE":"PAYLOAD","NORAD_CAT_ID":"48481","MEAN_ANOMALY":"293.5773","REF_FRAME":"TEME","TIME_SYSTEM":"UTC","OBJECT_ID":"2021-040BF","LAUNCH_DATE":"2021-05-09","CLASSIFICATION_TYPE":"U","ECCENTRICITY":"0.00012190","CENTER_NAME":"EARTH","TLE_LINE2":"2 48481  53.0564 109.2141 0001219  66.5344 293.5773 15.06407346 39799","GP_ID":"194711138","APOAPSIS":"548.035","OBJECT_NAME":"STARLINK-2706","SEMIMAJOR_AXIS":"6925.326","RCS_SIZE":"LARGE","REV_AT_EPOCH":"3979","BSTAR":"0.00011141000000","INCLINATION":"53.0564","PERIAPSIS":"546.347","MEAN_MOTION":"15.06407346","MEAN_ELEMENT_THEORY":"SGP4","MEAN_MOTION_DOT":"0.00001379","DECAY_DATE":null,"RA_OF_ASC_NODE":"109.2141","MEAN_MOTION_DDOT":"0.0000000000000","EPOCH":"2022-01-26T14:35:22.077888"},{"EPOCH":"2022-01-27T14:19:12.783072","DECAY_DATE":null,"MEAN_MOTION_DDOT":"0.0000000000000","RA_OF_ASC_NODE":"104.7779","MEAN_MOTION_DOT":"0.00003110","MEAN_MOTION":"15.06403957","PERIAPSIS":"546.239","MEAN_ELEMENT_THEORY":"SGP4","BSTAR":"0.00022756000000","INCLINATION":"53.0549","REV_AT_EPOCH":"4039","RCS_SIZE":"LARGE","GP_ID":"194754773","SEMIMAJOR_AXIS":"6925.336","APOAPSIS":"548.164","OBJECT_NAME":"STARLINK-2525","CENTER_NAME":"EARTH","TLE_LINE2":"2 48482  53.0549 104.7779 0001390  63.5363 296.5769 15.06403957 40398","CLASSIFICATION_TYPE":"U","LAUNCH_DATE":"2021-05-09","ECCENTRICITY":"0.00013900","REF_FRAME":"TEME","OBJECT_ID":"2021-040BG","TIME_SYSTEM":"UTC","OBJECT_TYPE":"PAYLOAD","MEAN_ANOMALY":"296.5769","NORAD_CAT_ID":"48482","ELEMENT_SET_NO":"999","ARG_OF_PERICENTER":"63.5363","COUNTRY_CODE":"US","SITE":"AFETR","TLE_LINE1":"1 48482U 21040BG  22027.59667573  .00003110  00000-0  22756-3 0  9994","PERIOD":"95.592","FILE":"3285370","EPHEMERIS_TYPE":"0"},{"EPOCH":"2022-01-27T14:13:54.555456","MEAN_MOTION_DDOT":"0.0000000000000","RA_OF_ASC_NODE":"104.7919","DECAY_DATE":null,"MEAN_MOTION_DOT":"0.00001474","MEAN_ELEMENT_THEORY":"SGP4","MEAN_MOTION":"15.06399036","PERIAPSIS":"546.138","INCLINATION":"53.0560","BSTAR":"0.00011782000000","REV_AT_EPOCH":"4122","RCS_SIZE":"LARGE","SEMIMAJOR_AXIS":"6925.352","OBJECT_NAME":"STARLINK-2531","APOAPSIS":"548.295","GP_ID":"194755214","TLE_LINE2":"2 48483  53.0560 104.7919 0001558  55.5915 304.5221 15.06399036 41226","CENTER_NAME":"EARTH","ECCENTRICITY":"0.00015580","LAUNCH_DATE":"2021-05-09","CLASSIFICATION_TYPE":"U","OBJECT_ID":"2021-040BH","TIME_SYSTEM":"UTC","REF_FRAME":"TEME","MEAN_ANOMALY":"304.5221","NORAD_CAT_ID":"48483","OBJECT_TYPE":"PAYLOAD","ARG_OF_PERICENTER":"55.5915","COUNTRY_CODE":"US","SITE":"AFETR","ELEMENT_SET_NO":"999","TLE_LINE1":"1 48483U 21040BH  22027.59299254  .00001474  00000-0  11782-3 0  9990","PERIOD":"95.592","EPHEMERIS_TYPE":"0","FILE":"3285352"},{"EPHEMERIS_TYPE":"0","FILE":"3285306","SITE":"AFETR","ARG_OF_PERICENTER":"69.7666","COUNTRY_CODE":"US","ELEMENT_SET_NO":"999","TLE_LINE1":"1 48484U 21040BJ  22027.63628447  .00002540  00000-0  18939-3 0  9992","PERIOD":"95.593","TIME_SYSTEM":"UTC","OBJECT_ID":"2021-040BJ","REF_FRAME":"TEME","NORAD_CAT_ID":"48484","MEAN_ANOMALY":"290.3465","OBJECT_TYPE":"PAYLOAD","TLE_LINE2":"2 48484  53.0545 104.5892 0001327  69.7666 290.3465 15.06394246 41233","CENTER_NAME":"EARTH","CLASSIFICATION_TYPE":"U","LAUNCH_DATE":"2021-05-09","ECCENTRICITY":"0.00013270","APOAPSIS":"548.150","OBJECT_NAME":"STARLINK-2696","SEMIMAJOR_AXIS":"6925.366","GP_ID":"194752395","INCLINATION":"53.0545","BSTAR":"0.00018939000000","RCS_SIZE":"LARGE","REV_AT_EPOCH":"4123","MEAN_MOTION_DOT":"0.00002540","MEAN_ELEMENT_THEORY":"SGP4","PERIAPSIS":"546.312","MEAN_MOTION":"15.06394246","EPOCH":"2022-01-27T15:16:14.978208","RA_OF_ASC_NODE":"104.5892","MEAN_MOTION_DDOT":"0.0000000000000","DECAY_DATE":null},{"REV_AT_EPOCH":"4122","RCS_SIZE":"LARGE","INCLINATION":"53.0556","BSTAR":"-0.00003914500000","SEMIMAJOR_AXIS":"6925.346","APOAPSIS":"548.098","OBJECT_NAME":"STARLINK-2500","GP_ID":"194752414","RA_OF_ASC_NODE":"104.7580","MEAN_MOTION_DDOT":"0.0000000000000","DECAY_DATE":null,"EPOCH":"2022-01-27T14:24:30.513888","MEAN_ELEMENT_THEORY":"SGP4","MEAN_MOTION":"15.06400972","PERIAPSIS":"546.323","MEAN_MOTION_DOT":"-0.00000864","PERIOD":"95.592","TLE_LINE1":"1 48485U 21040BK  22027.60035317 -.00000864  00000-0 -39145-4 0  9990","COUNTRY_CODE":"US","ARG_OF_PERICENTER":"72.1440","SITE":"AFETR","ELEMENT_SET_NO":"999","FILE":"3285259","EPHEMERIS_TYPE":"0","ECCENTRICITY":"0.00012810","LAUNCH_DATE":"2021-05-09","CLASSIFICATION_TYPE":"U","TLE_LINE2":"2 48485  53.0556 104.7580 0001281  72.1440 287.9689 15.06400972 41222","CENTER_NAME":"EARTH","MEAN_ANOMALY":"287.9689","NORAD_CAT_ID":"48485","OBJECT_TYPE":"PAYLOAD","OBJECT_ID":"2021-040BK","TIME_SYSTEM":"UTC","REF_FRAME":"TEME"},{"TLE_LINE1":"1 48486U 21040BL  22027.67039608  .00000697  00000-0  65713-4 0  9997","PERIOD":"95.592","ELEMENT_SET_NO":"999","ARG_OF_PERICENTER":"75.1099","COUNTRY_CODE":"US","SITE":"AFETR","FILE":"3285353","EPHEMERIS_TYPE":"0","LAUNCH_DATE":"2021-05-09","ECCENTRICITY":"0.00015220","CLASSIFICATION_TYPE":"U","CENTER_NAME":"EARTH","TLE_LINE2":"2 48486  53.0548 104.4406 0001522  75.1099 285.0058 15.06394990 41231","OBJECT_TYPE":"PAYLOAD","MEAN_ANOMALY":"285.0058","NORAD_CAT_ID":"48486","REF_FRAME":"TEME","OBJECT_ID":"2021-040BL","TIME_SYSTEM":"UTC","REV_AT_EPOCH":"4123","RCS_SIZE":"LARGE","BSTAR":"0.00006571300000","INCLINATION":"53.0548","GP_ID":"194755229","SEMIMAJOR_AXIS":"6925.364","OBJECT_NAME":"STARLINK-2496","APOAPSIS":"548.283","DECAY_DATE":null,"RA_OF_ASC_NODE":"104.4406","MEAN_MOTION_DDOT":"0.0000000000000","EPOCH":"2022-01-27T16:05:22.221312","MEAN_MOTION":"15.06394990","PERIAPSIS":"546.175","MEAN_ELEMENT_THEORY":"SGP4","MEAN_MOTION_DOT":"0.00000697"},{"SEMIMAJOR_AXIS":"6925.381","OBJECT_NAME":"STARLINK-2494","APOAPSIS":"548.172","GP_ID":"194754793","INCLINATION":"53.0539","BSTAR":"-0.00001590700000","REV_AT_EPOCH":"4124","RCS_SIZE":"LARGE","MEAN_MOTION_DOT":"-0.00000518","MEAN_ELEMENT_THEORY":"SGP4","MEAN_MOTION":"15.06389344","PERIAPSIS":"546.320","EPOCH":"2022-01-27T16:10:40.750464","RA_OF_ASC_NODE":"104.4429","MEAN_MOTION_DDOT":"0.0000000000000","DECAY_DATE":null,"FILE":"3285353","EPHEMERIS_TYPE":"0","COUNTRY_CODE":"US","ARG_OF_PERICENTER":"71.1319","SITE":"AFETR","ELEMENT_SET_NO":"999","PERIOD":"95.593","TLE_LINE1":"1 48487U 21040BM  22027.67408276 -.00000518  00000-0 -15907-4 0  9993","OBJECT_ID":"2021-040BM","TIME_SYSTEM":"UTC","REF_FRAME":"TEME","MEAN_ANOMALY":"288.9814","NORAD_CAT_ID":"48487","OBJECT_TYPE":"PAYLOAD","TLE_LINE2":"2 48487  53.0539 104.4429 0001337  71.1319 288.9814 15.06389344 41242","CENTER_NAME":"EARTH","ECCENTRICITY":"0.00013370","LAUNCH_DATE":"2021-05-09","CLASSIFICATION_TYPE":"U"},{"GP_ID":"194746540","SEMIMAJOR_AXIS":"6925.360","APOAPSIS":"548.023","OBJECT_NAME":"STARLINK-2063","REV_AT_EPOCH":"3927","RCS_SIZE":"LARGE","BSTAR":"0.00001905800000","INCLINATION":"53.0561","MEAN_MOTION":"15.06396164","PERIAPSIS":"546.428","MEAN_ELEMENT_THEORY":"SGP4","MEAN_MOTION_DOT":"0.00000003","DECAY_DATE":null,"RA_OF_ASC_NODE":"34.2392","MEAN_MOTION_DDOT":"0.0000000000000","EPOCH":"2022-01-27T17:13:03.226944","EPHEMERIS_TYPE":"0","FILE":"3284994","TLE_LINE1":"1 48553U 21041A   22027.71739846  .00000003  00000-0  19058-4 0  9991","PERIOD":"95.592","ELEMENT_SET_NO":"999","ARG_OF_PERICENTER":"77.7681","COUNTRY_CODE":"US","SITE":"AFETR","OBJECT_TYPE":"PAYLOAD","MEAN_ANOMALY":"282.3437","NORAD_CAT_ID":"48553","REF_FRAME":"TEME","OBJECT_ID":"2021-041A","TIME_SYSTEM":"UTC","LAUNCH_DATE":"2021-05-15","CLASSIFICATION_TYPE":"U","ECCENTRICITY":"0.00011520","CENTER_NAME":"EARTH","TLE_LINE2":"2 48553  53.0561  34.2392 0001152  77.7681 282.3437 15.06396164 39276"}];
